SENTINEL-6A             
1 46984U 20086A   26201.89236175 -.00000062  00000+0 -61804-5 0  9992
2 46984  66.0411  65.0469 0007785 269.6345  90.3778 12.80930248264646
SENTINEL-6B             
1 66514U 25264A   26201.89270967 -.00000060  00000+0  45001-5 0  9991
2 66514  66.0410  65.1724 0007838 268.4908  91.5209 12.80930278 31481
