{"fetched_at":"2026-07-21T07:07:11.422Z","source":"https://celestrak.org/NORAD/elements/gp.php?NAME=SENTINEL&FORMAT=JSON","constellation":"sentinel-6","records":[{"OBJECT_NAME":"SENTINEL-6A","OBJECT_ID":"2020-086A","EPOCH":"2026-07-20T21:25:00.055200","CLASSIFICATION_TYPE":"U","MEAN_MOTION":12.80930248,"ECCENTRICITY":0.00077852,"INCLINATION":66.0411,"RA_OF_ASC_NODE":65.0469,"ARG_OF_PERICENTER":269.6345,"MEAN_ANOMALY":90.3778,"EPHEMERIS_TYPE":0,"NORAD_CAT_ID":46984,"ELEMENT_SET_NO":999,"REV_AT_EPOCH":26464,"BSTAR":-0.000006180367,"MEAN_MOTION_DOT":-6.2e-7,"MEAN_MOTION_DDOT":0},{"OBJECT_NAME":"SENTINEL-6B","OBJECT_ID":"2025-264A","EPOCH":"2026-07-20T21:25:30.115488","CLASSIFICATION_TYPE":"U","MEAN_MOTION":12.80930278,"ECCENTRICITY":0.00078388,"INCLINATION":66.041,"RA_OF_ASC_NODE":65.1724,"ARG_OF_PERICENTER":268.4908,"MEAN_ANOMALY":91.5209,"EPHEMERIS_TYPE":0,"NORAD_CAT_ID":66514,"ELEMENT_SET_NO":999,"REV_AT_EPOCH":3148,"BSTAR":0.000004500148,"MEAN_MOTION_DOT":-6e-7,"MEAN_MOTION_DDOT":0}]}
